ONEWEB-0687             
1 61595U 24188B   25188.63346031  .00000023  00000+0  27010-4 0  9997
2 61595  87.9065  74.5057 0001412  61.7965 298.3309 13.17848742 40523
ONEWEB-0688             
1 61596U 24188C   25188.73710487 -.00010251  00000+0 -26401-1 0  9995
2 61596  87.9062  74.4859 0001576 133.4933 226.6330 13.17814277 38603
ONEWEB-0689             
1 61597U 24188D   25188.17678147  .00000630  00000+0  17416-2 0  9995
2 61597  87.8800  89.8489 0001798  67.4231 292.7087 13.11418306 39235
ONEWEB-0690             
1 61598U 24188E   25188.18696585  .00000451  00000+0  12358-2 0  9994
2 61598  87.8849  89.7979 0002396  94.2664 265.8738 13.11415330 39413
ONEWEB-0691             
1 61599U 24188F   25188.18187446  .00000565  00000+0  15595-2 0  9998
2 61599  87.8748  89.8116 0001536  85.8175 274.3128 13.11415320 39264
ONEWEB-0692             
1 61600U 24188G   25188.73628894 -.00000120  00000+0 -37346-3 0  9997
2 61600  87.8827  89.7648 0002624  62.3345 297.8049 13.11413586 37545
ONEWEB-0693             
1 61601U 24188H   25188.74896575  .00000039  00000+0  68199-4 0  9990
2 61601  87.9114  74.5057 0002371  98.1949 261.9452 13.17836010 38759
ONEWEB-0695             
1 61602U 24188J   25188.78886256  .00000498  00000+0  13689-2 0  9991
2 61602  87.8837  89.7394 0002051  62.9661 297.1676 13.11417515 37575
